0 DMSP 5D-2 F11 DEB
1 29084U 91082CD  13282.83390339  .00012335  00000-0  38123-2 0  7932
2 29084 098.6204 298.0807 0011712 011.6162 113.9079 14.41382914478250
0 DMSP 5D-2 F11 DEB
1 29084U 91082CD  13285.88735192  .00011672  00000-0  36040-2 0  7951
2 29084 098.6204 301.1612 0011449 000.9551 120.0569 14.41442587478694
0 DMSP 5D-2 F11 DEB
1 29084U 91082CD  13288.87221302  .00015812  00000-0  48669-2 0  7967
2 29084 098.6192 304.1731 0011289 350.3622 131.1340 14.41519581479126
0 DMSP 5D-2 F11 DEB
1 29084U 91082CD  13289.84438777  .00014924  00000-0  45931-2 0  7974
2 29084 098.6189 305.1540 0011270 346.9698 136.7408 14.41539889479269
0 DMSP 5D-2 F11 DEB
1 29084U 91082CD  13291.85719015  .00014251  00000-0  43824-2 0  7988
2 29084 098.6185 307.1847 0011208 339.7792 143.6463 14.41590997479550
0 DMSP 5D-2 F11 DEB
1 29084U 91082CD  13293.86982905  .00014899  00000-0  45766-2 0  7997
2 29084 098.6187 309.2148 0011168 332.6641 149.9808 14.41635861479843
0 DMSP 5D-2 F11 DEB
1 29084U 91082CD  13295.88215341  .00016834  00000-0  51623-2 0  8007
2 29084 098.6191 311.2451 0011181 325.4281 155.1415 14.41685088480136
